IRIDIUM 33 DEB          
1 35629U 97051RB  17345.14770471  .00007877  00000-0  16304-2 0  9993
2 35629  86.3743 223.5549 0100586  97.7372 263.5272 14.56983273443593
